[{"OBJECT_NAME":"ONEWEB-0206","OBJECT_ID":"2021-031T","EPOCH":"2025-09-18T05:14:01.418208","MEAN_MOTION":13.14503909,"ECCENTRICITY":0.00019646,"INCLINATION":87.9089,"RA_OF_ASC_NODE":343.8305,"ARG_OF_PERICENTER":100.6254,"MEAN_ANOMALY":259.5097,"EPHEMERIS_TYPE":0,"CLASSIFICATION_TYPE":"U","NORAD_CAT_ID":48227,"ELEMENT_SET_NO":999,"REV_AT_EPOCH":21249,"BSTAR":0.00057470021,"MEAN_MOTION_DOT":2.26e-6,"MEAN_MOTION_DDOT":0},{"OBJECT_NAME":"ONEWEB-0182","OBJECT_ID":"2021-031U","EPOCH":"2025-09-18T05:07:10.668288","MEAN_MOTION":13.14503911,"ECCENTRICITY":0.00020723,"INCLINATION":87.908,"RA_OF_ASC_NODE":343.8742,"ARG_OF_PERICENTER":96.0907,"MEAN_ANOMALY":264.0459,"EPHEMERIS_TYPE":0,"CLASSIFICATION_TYPE":"U","NORAD_CAT_ID":48228,"ELEMENT_SET_NO":999,"REV_AT_EPOCH":21270,"BSTAR":0.00052150573,"MEAN_MOTION_DOT":2.06e-6,"MEAN_MOTION_DDOT":0},{"OBJECT_NAME":"ONEWEB-0186","OBJECT_ID":"2021-031V","EPOCH":"2025-09-18T05:23:09.468960","MEAN_MOTION":13.14504398,"ECCENTRICITY":0.00019484,"INCLINATION":87.909,"RA_OF_ASC_NODE":343.8353,"ARG_OF_PERICENTER":103.0054,"MEAN_ANOMALY":257.1293,"EPHEMERIS_TYPE":0,"CLASSIFICATION_TYPE":"U","NORAD_CAT_ID":48229,"ELEMENT_SET_NO":999,"REV_AT_EPOCH":21265,"BSTAR":0.00063187579,"MEAN_MOTION_DOT":2.47e-6,"MEAN_MOTION_DDOT":0},{"OBJECT_NAME":"ONEWEB-0181","OBJECT_ID":"2021-031W","EPOCH":"2025-09-18T04:51:11.424384","MEAN_MOTION":13.14503045,"ECCENTRICITY":0.00018768,"INCLINATION":87.9071,"RA_OF_ASC_NODE":343.9092,"ARG_OF_PERICENTER":106.2683,"MEAN_ANOMALY":253.8653,"EPHEMERIS_TYPE":0,"CLASSIFICATION_TYPE":"U","NORAD_CAT_ID":48230,"ELEMENT_SET_NO":999,"REV_AT_EPOCH":21250,"BSTAR":1.0996422e-5,"MEAN_MOTION_DOT":1.7e-7,"MEAN_MOTION_DDOT":0},{"OBJECT_NAME":"ONEWEB-0188","OBJECT_ID":"2021-031X","EPOCH":"2025-09-17T18:48:19.361952","MEAN_MOTION":13.1450397,"ECCENTRICITY":0.0001921,"INCLINATION":87.9085,"RA_OF_ASC_NODE":343.9855,"ARG_OF_PERICENTER":100.4147,"MEAN_ANOMALY":259.7199,"EPHEMERIS_TYPE":0,"CLASSIFICATION_TYPE":"U","NORAD_CAT_ID":48231,"ELEMENT_SET_NO":999,"REV_AT_EPOCH":21235,"BSTAR":-0.000278801,"MEAN_MOTION_DOT":-9.1e-7,"MEAN_MOTION_DDOT":0},{"OBJECT_NAME":"ONEWEB-0220","OBJECT_ID":"2021-031Y","EPOCH":"2025-09-18T04:53:28.447008","MEAN_MOTION":13.14503421,"ECCENTRICITY":0.00021213,"INCLINATION":87.9086,"RA_OF_ASC_NODE":343.8407,"ARG_OF_PERICENTER":103.3211,"MEAN_ANOMALY":256.8155,"EPHEMERIS_TYPE":0,"CLASSIFICATION_TYPE":"U","NORAD_CAT_ID":48232,"ELEMENT_SET_NO":999,"REV_AT_EPOCH":21267,"BSTAR":0.00011986954,"MEAN_MOTION_DOT":5.7e-7,"MEAN_MOTION_DDOT":0},{"OBJECT_NAME":"ONEWEB-0165","OBJECT_ID":"2021-031Z","EPOCH":"2025-09-18T05:34:34.219200","MEAN_MOTION":13.14502643,"ECCENTRICITY":0.00019785,"INCLINATION":87.907,"RA_OF_ASC_NODE":343.875,"ARG_OF_PERICENTER":105.5106,"MEAN_ANOMALY":254.6242,"EPHEMERIS_TYPE":0,"CLASSIFICATION_TYPE":"U","NORAD_CAT_ID":48233,"ELEMENT_SET_NO":999,"REV_AT_EPOCH":21263,"BSTAR":0.00044852935,"MEAN_MOTION_DOT":1.79e-6,"MEAN_MOTION_DDOT":0},{"OBJECT_NAME":"ONEWEB-0199","OBJECT_ID":"2021-031AA","EPOCH":"2025-09-17T18:14:04.575552","MEAN_MOTION":13.14504102,"ECCENTRICITY":0.00017808,"INCLINATION":87.9079,"RA_OF_ASC_NODE":343.9351,"ARG_OF_PERICENTER":97.0666,"MEAN_ANOMALY":263.0666,"EPHEMERIS_TYPE":0,"CLASSIFICATION_TYPE":"U","NORAD_CAT_ID":48234,"ELEMENT_SET_NO":999,"REV_AT_EPOCH":21247,"BSTAR":0.00047168327,"MEAN_MOTION_DOT":1.88e-6,"MEAN_MOTION_DDOT":0},{"OBJECT_NAME":"ONEWEB-0203","OBJECT_ID":"2021-031AB","EPOCH":"2025-09-18T04:58:01.767360","MEAN_MOTION":13.14502505,"ECCENTRICITY":0.00016157,"INCLINATION":87.9078,"RA_OF_ASC_NODE":343.8479,"ARG_OF_PERICENTER":104.2751,"MEAN_ANOMALY":255.8558,"EPHEMERIS_TYPE":0,"CLASSIFICATION_TYPE":"U","NORAD_CAT_ID":48235,"ELEMENT_SET_NO":999,"REV_AT_EPOCH":21254,"BSTAR":0.00026706634,"MEAN_MOTION_DOT":1.12e-6,"MEAN_MOTION_DDOT":0},{"OBJECT_NAME":"ONEWEB-0197","OBJECT_ID":"2021-031AC","EPOCH":"2025-09-18T04:21:19.481472","MEAN_MOTION":13.14503542,"ECCENTRICITY":0.00021361,"INCLINATION":87.908,"RA_OF_ASC_NODE":343.8514,"ARG_OF_PERICENTER":94.7584,"MEAN_ANOMALY":265.379,"EPHEMERIS_TYPE":0,"CLASSIFICATION_TYPE":"U","NORAD_CAT_ID":48236,"ELEMENT_SET_NO":999,"REV_AT_EPOCH":21245,"BSTAR":-0.0004990997,"MEAN_MOTION_DOT":-1.72e-6,"MEAN_MOTION_DDOT":0},{"OBJECT_NAME":"ONEWEB-0194","OBJECT_ID":"2021-031AD","EPOCH":"2025-09-18T05:41:25.172160","MEAN_MOTION":13.14503832,"ECCENTRICITY":0.00016436,"INCLINATION":87.9085,"RA_OF_ASC_NODE":343.8547,"ARG_OF_PERICENTER":95.7915,"MEAN_ANOMALY":264.3402,"EPHEMERIS_TYPE":0,"CLASSIFICATION_TYPE":"U","NORAD_CAT_ID":48237,"ELEMENT_SET_NO":999,"REV_AT_EPOCH":21263,"BSTAR":0.00028890071,"MEAN_MOTION_DOT":1.2e-6,"MEAN_MOTION_DDOT":0},{"OBJECT_NAME":"ONEWEB-0193","OBJECT_ID":"2021-031AE","EPOCH":"2025-09-17T19:06:36.499392","MEAN_MOTION":13.14503748,"ECCENTRICITY":0.00015409,"INCLINATION":87.9071,"RA_OF_ASC_NODE":343.9427,"ARG_OF_PERICENTER":88.8205,"MEAN_ANOMALY":271.3102,"EPHEMERIS_TYPE":0,"CLASSIFICATION_TYPE":"U","NORAD_CAT_ID":48238,"ELEMENT_SET_NO":999,"REV_AT_EPOCH":21252,"BSTAR":-0.00064364504,"MEAN_MOTION_DOT":-2.26e-6,"MEAN_MOTION_DDOT":0},{"OBJECT_NAME":"ONEWEB-0191","OBJECT_ID":"2021-031AF","EPOCH":"2025-09-18T04:30:37.065600","MEAN_MOTION":13.14504792,"ECCENTRICITY":0.00018413,"INCLINATION":87.9091,"RA_OF_ASC_NODE":343.8437,"ARG_OF_PERICENTER":99.1348,"MEAN_ANOMALY":260.999,"EPHEMERIS_TYPE":0,"CLASSIFICATION_TYPE":"U","NORAD_CAT_ID":48239,"ELEMENT_SET_NO":999,"REV_AT_EPOCH":21243,"BSTAR":-0.00047408789,"MEAN_MOTION_DOT":-1.63e-6,"MEAN_MOTION_DDOT":0},{"OBJECT_NAME":"ONEWEB-0195","OBJECT_ID":"2021-031AG","EPOCH":"2025-09-18T05:47:07.367136","MEAN_MOTION":13.14501025,"ECCENTRICITY":0.00019317,"INCLINATION":87.909,"RA_OF_ASC_NODE":343.8299,"ARG_OF_PERICENTER":112.2158,"MEAN_ANOMALY":247.9177,"EPHEMERIS_TYPE":0,"CLASSIFICATION_TYPE":"U","NORAD_CAT_ID":48240,"ELEMENT_SET_NO":999,"REV_AT_EPOCH":21242,"BSTAR":0.00013176167,"MEAN_MOTION_DOT":6.2e-7,"MEAN_MOTION_DDOT":0},{"OBJECT_NAME":"ONEWEB-0201","OBJECT_ID":"2021-031AH","EPOCH":"2025-09-17T18:32:31.240320","MEAN_MOTION":13.14504296,"ECCENTRICITY":0.00021694,"INCLINATION":87.9088,"RA_OF_ASC_NODE":343.9722,"ARG_OF_PERICENTER":103.6371,"MEAN_ANOMALY":256.5,"EPHEMERIS_TYPE":0,"CLASSIFICATION_TYPE":"U","NORAD_CAT_ID":48241,"ELEMENT_SET_NO":999,"REV_AT_EPOCH":21259,"BSTAR":0.00044219671,"MEAN_MOTION_DOT":1.77e-6,"MEAN_MOTION_DDOT":0},{"OBJECT_NAME":"ONEWEB-0207","OBJECT_ID":"2021-031AJ","EPOCH":"2025-09-17T18:03:48.011328","MEAN_MOTION":13.14503123,"ECCENTRICITY":0.00021242,"INCLINATION":87.9078,"RA_OF_ASC_NODE":343.9335,"ARG_OF_PERICENTER":100.019,"MEAN_ANOMALY":260.1179,"EPHEMERIS_TYPE":0,"CLASSIFICATION_TYPE":"U","NORAD_CAT_ID":48242,"ELEMENT_SET_NO":999,"REV_AT_EPOCH":21250,"BSTAR":0.00044709042,"MEAN_MOTION_DOT":1.79e-6,"MEAN_MOTION_DDOT":0},{"OBJECT_NAME":"ONEWEB-0208","OBJECT_ID":"2021-031AK","EPOCH":"2025-09-18T04:35:11.146272","MEAN_MOTION":13.14504345,"ECCENTRICITY":0.00018593,"INCLINATION":87.9082,"RA_OF_ASC_NODE":343.862,"ARG_OF_PERICENTER":107.534,"MEAN_ANOMALY":252.5993,"EPHEMERIS_TYPE":0,"CLASSIFICATION_TYPE":"U","NORAD_CAT_ID":48243,"ELEMENT_SET_NO":999,"REV_AT_EPOCH":21257,"BSTAR":-0.00030331245,"MEAN_MOTION_DOT":-1.0e-6,"MEAN_MOTION_DDOT":0},{"OBJECT_NAME":"ONEWEB-0200","OBJECT_ID":"2021-031AL","EPOCH":"2025-09-17T18:34:38.072928","MEAN_MOTION":13.14504295,"ECCENTRICITY":0.00018838,"INCLINATION":87.9081,"RA_OF_ASC_NODE":343.9346,"ARG_OF_PERICENTER":103.6531,"MEAN_ANOMALY":256.4809,"EPHEMERIS_TYPE":0,"CLASSIFICATION_TYPE":"U","NORAD_CAT_ID":48244,"ELEMENT_SET_NO":999,"REV_AT_EPOCH":21244,"BSTAR":7.4396351e-5,"MEAN_MOTION_DOT":4.0e-7,"MEAN_MOTION_DDOT":0},{"OBJECT_NAME":"ONEWEB-0217","OBJECT_ID":"2021-031AM","EPOCH":"2025-09-17T18:57:27.243360","MEAN_MOTION":13.14502676,"ECCENTRICITY":0.00018266,"INCLINATION":87.9093,"RA_OF_ASC_NODE":343.9183,"ARG_OF_PERICENTER":110.316,"MEAN_ANOMALY":249.8166,"EPHEMERIS_TYPE":0,"CLASSIFICATION_TYPE":"U","NORAD_CAT_ID":48245,"ELEMENT_SET_NO":999,"REV_AT_EPOCH":21239,"BSTAR":-0.00057463875,"MEAN_MOTION_DOT":-2.0e-6,"MEAN_MOTION_DDOT":0},{"OBJECT_NAME":"ONEWEB-0211","OBJECT_ID":"2021-045A","EPOCH":"2025-09-18T02:32:55.039776","MEAN_MOTION":13.16084584,"ECCENTRICITY":0.00015574,"INCLINATION":87.9033,"RA_OF_ASC_NODE":313.424,"ARG_OF_PERICENTER":101.4858,"MEAN_ANOMALY":258.6448,"EPHEMERIS_TYPE":0,"CLASSIFICATION_TYPE":"U","NORAD_CAT_ID":48767,"ELEMENT_SET_NO":999,"REV_AT_EPOCH":20865,"BSTAR":-0.00026523727,"MEAN_MOTION_DOT":-8.8e-7,"MEAN_MOTION_DDOT":0},{"OBJECT_NAME":"ONEWEB-0223","OBJECT_ID":"2021-045B","EPOCH":"2025-09-18T03:16:07.662720","MEAN_MOTION":13.15549532,"ECCENTRICITY":0.00014331,"INCLINATION":87.9023,"RA_OF_ASC_NODE":313.4718,"ARG_OF_PERICENTER":101.6516,"MEAN_ANOMALY":258.4775,"EPHEMERIS_TYPE":0,"CLASSIFICATION_TYPE":"U","NORAD_CAT_ID":48768,"ELEMENT_SET_NO":999,"REV_AT_EPOCH":20863,"BSTAR":0.00056327214,"MEAN_MOTION_DOT":2.25e-6,"MEAN_MOTION_DDOT":0},{"OBJECT_NAME":"ONEWEB-0230","OBJECT_ID":"2021-045C","EPOCH":"2025-09-18T02:35:03.645312","MEAN_MOTION":13.15549206,"ECCENTRICITY":0.00019063,"INCLINATION":87.9017,"RA_OF_ASC_NODE":313.5107,"ARG_OF_PERICENTER":93.045,"MEAN_ANOMALY":267.0898,"EPHEMERIS_TYPE":0,"CLASSIFICATION_TYPE":"U","NORAD_CAT_ID":48769,"ELEMENT_SET_NO":999,"REV_AT_EPOCH":20889,"BSTAR":-7.8336493e-5,"MEAN_MOTION_DOT":-1.7e-7,"MEAN_MOTION_DDOT":0},{"OBJECT_NAME":"ONEWEB-0237","OBJECT_ID":"2021-045D","EPOCH":"2025-09-18T02:19:04.197504","MEAN_MOTION":13.15554011,"ECCENTRICITY":0.00015939,"INCLINATION":87.9027,"RA_OF_ASC_NODE":313.5085,"ARG_OF_PERICENTER":96.1133,"MEAN_ANOMALY":264.0179,"EPHEMERIS_TYPE":0,"CLASSIFICATION_TYPE":"U","NORAD_CAT_ID":48770,"ELEMENT_SET_NO":999,"REV_AT_EPOCH":20861,"BSTAR":-0.00025248442,"MEAN_MOTION_DOT":-8.2e-7,"MEAN_MOTION_DDOT":0}]
